CZ-2D R/B               
1 28738U 05024B   26136.05023124  .00042532  00000+0  41393-3 0  9992
2 28738  97.3512 153.9589 0006654 121.8316 238.3593 15.66137833150305
ALOS (DAICHI)           
1 28931U 06002A   26135.48622885  .00000572  00000+0  10378-3 0  9996
2 28931  98.1308  91.1617 0002206  84.8944 275.2514 14.69978723 83290
H-2A R/B                
1 28932U 06002B   26136.01566270  .00004402  00000+0  21546-3 0  9997
2 28932  98.2525 288.9530 0051148  13.7168 346.5439 15.17654517104648
RESURS-DK 1             
1 29228U 06021A   26136.17198255  .00001328  00000+0  81012-4 0  9997
2 29228  69.9319  62.4197 0004794 329.9449  30.1441 15.13072265 97736
CZ-4B R/B               
1 29507U 06046C   26136.27534896  .00003495  00000+0  17527-3 0  9996
2 29507  97.5477 180.9832 0033655  35.8803 324.4682 15.17519135 70299
CZ-2C R/B               
1 31114U 07010B   26136.28750085  .00000053  00000+0  43023-4 0  9994
2 31114  98.4065 246.2045 0060187  97.6570 263.1448 14.20267988989318
COSMO-SKYMED 1          
1 31598U 07023A   26136.31879120  .00001320  00000+0  12011-3 0  9990
2 31598  97.8859 327.9100 0001159  89.3163 270.8191 14.96938380 25020
COSMOS 2428             
1 31792U 07029A   26136.21479997 -.00000255  00000+0 -11094-3 0  9997
2 31792  70.9397  61.6036 0007996 194.0123 166.0778 14.12938520973630
SL-16 R/B               
1 31793U 07029B   26136.16280091 -.00000199  00000+0 -78329-4 0  9999
2 31793  70.9776  30.5492 0002803 268.4730 202.1226 14.14851082974916
KORONAS-FOTON           
1 33504U 09003A   26136.22048956  .00009735  00000+0  20540-3 0  9998
2 33504  82.4318 205.5851 0008843 268.0729  91.9507 15.45007693956164
CZ-2C R/B               
1 37731U 11030B   26136.23659319  .00000587  00000+0  80019-4 0  9993
2 37731  97.8638  92.2064 0053516 129.4273 337.9439 14.81391859800099
H-2A R/B                
1 38341U 12025E   26136.24452355  .00001346  00000+0  12527-3 0  9990
2 38341  98.4813 108.7671 0045419  91.5719 269.0703 14.95530510758313
SHIJIAN-16 (SJ-16)      
1 39358U 13057A   26136.33363171  .00000722  00000+0  72999-4 0  9999
2 39358  74.9736  57.0086 0016827 303.9527  56.0061 14.92522113681592
SL-4 R/B                
1 39679U 14021B   26135.97448496  .00009572  00000+0  20432-3 0  9996
2 39679  51.6077   8.4892 0092156 349.0293  10.8681 15.41178292666648
ALOS-2                  
1 39766U 14029A   26136.21646360  .00000296  00000+0  46477-4 0  9991
2 39766  97.9221 233.8371 0001562  90.5907 269.5484 14.79471883646853
YAOGAN-29               
1 41038U 15069A   26136.33256384 -.00000069  00000+0 -18186-5 0  9994
2 41038  98.0053 164.9128 0002876 106.5622 253.5907 14.83056371565903
ASTRO-H (HITOMI)        
1 41337U 16012A   26135.52110353  .00001594  00000+0  89004-4 0  9998
2 41337  30.9995 285.1338 0009627 284.6911  75.2660 15.10370548562340
HXMT (HUIYAN)           
1 42758U 17034A   26136.03098159  .00003465  00000+0  17593-3 0  9999
2 42758  43.0154   2.0536 0032733 299.9122  59.8477 15.18166462492772
SAOCOM 1A               
1 43641U 18076A   26136.27109413  .00000221  00000+0  34384-4 0  9995
2 43641  97.8883 323.4835 0001540  84.2213 275.9176 14.82148220411376
H-2A R/B                
1 43682U 18084L   26136.25325074  .00018154  00000+0  39739-3 0  9992
2 43682  98.8624   8.1964 0024514 145.9718 214.3104 15.43897152416192
SAOCOM 1B               
1 46265U 20059A   26135.96474440  .00000601  00000+0  81990-4 0  9991
2 46265  97.8887 322.2754 0001579  81.3866 278.7526 14.82164472308716
CSS (TIANHE)            
1 48274U 21035A   26136.10213920  .00011556  00000+0  13943-3 0  9992
2 48274  41.4668 157.1227 0007244 240.9734 119.0380 15.60599388288157
COSMOS 2550             
1 48865U 21056A   26136.26769878  .00003685  00000+0  11748-3 0  9991
2 48865  67.1425 196.4594 0008482 266.5337  93.4847 15.33910548273826
CZ-2C R/B               
1 52794U 22058K   26135.84399701  .00035292  00000+0  42976-3 0  9993
2 52794  50.1867 331.5045 0035939 129.5718 230.8439 15.59341388220593
CZ-2C R/B               
1 54039U 22132E   26136.27631128  .00046654  00000+0  41985-3 0  9993
2 54039  97.2917 141.9658 0015408 186.2967 173.8103 15.67936611200942
GSLV R/B                
1 54149U 22138AN  26136.03571692  .00001643  00000+0  13954-3 0  9998
2 54149  87.3795 143.7831 0018656 266.2414  93.6684 14.97106708194005
XRISM                   
1 57800U 23137A   26136.31197413  .00003436  00000+0  18872-3 0  9997
2 57800  31.0013 206.0309 0007607   2.0830 357.9840 15.12181993148035
ACS3                    
1 59588U 24077B   26136.24911105  .00013708  00000+0  10569-1 0  9996
2 59588  97.1742  62.1881 0026579 350.8071   9.2605 13.92772823103590
HTV-X1                  
1 66174U 25241A   26136.13827958  .00012648  00000+0  13911-3 0  9997
2 66174  51.6343 102.4771 0007566  65.8114 294.3671 15.63550749 31336
SZ-21 MODULE            
1 66515U 25246C   26136.32104610  .00038446  00000+0  26669-3 0  9993
2 66515  41.4711 145.3769 0003240 154.9557 205.1445 15.73677501 28714

ISS (ZARYA)             
1 25544U 98067A   26136.13376888  .00005028  00000+0  98569-4 0  9997
2 25544  51.6318  98.7731 0007490  64.0316 296.1443 15.49230000566786
POISK                   
1 36086U 09060A   26136.13376888  .00005028  00000+0  98569-4 0  9995
2 36086  51.6318  98.7731 0007490  64.0316 296.1443 15.49230000566891
CSS (TIANHE)            
1 48274U 21035A   26136.10213920  .00011556  00000+0  13943-3 0  9992
2 48274  41.4668 157.1227 0007244 240.9734 119.0380 15.60599388288157
ISS (NAUKA)             
1 49044U 21066A   26136.13376888  .00005028  00000+0  98569-4 0  9993
2 49044  51.6318  98.7731 0007490  64.0316 296.1443 15.49230000566934
FREGAT DEB              
1 49271U 11037PF  26135.29169306  .00006498  00000+0  10268-1 0  9992
2 49271  51.6224 100.7448 0930056 211.0178 143.2433 12.41397351220967
CSS (WENTIAN)           
1 53239U 22085A   26136.10213920  .00011556  00000+0  13943-3 0  9995
2 53239  41.4668 157.1227 0007244 240.9734 119.0380 15.60599388288233
CSS (MENGTIAN)          
1 54216U 22143A   26136.10213920  .00011556  00000+0  13943-3 0  9996
2 54216  41.4668 157.1227 0007244 240.9734 119.0380 15.60599388288611
HRC MONOBLOCK CAMERA    
1 66052U 98067XR  26136.28205584  .00065990  00000+0  54749-3 0  9991
2 66052  51.6260  82.4816 0004311  60.8775 299.2653 15.69562314 32982
HTV-X1                  
1 66174U 25241A   26136.13827958  .00012648  00000+0  13911-3 0  9997
2 66174  51.6343 102.4771 0007566  65.8114 294.3671 15.63550749 31336
SZ-21 MODULE            
1 66515U 25246C   26136.32104610  .00038446  00000+0  26669-3 0  9993
2 66515  41.4711 145.3769 0003240 154.9557 205.1445 15.73677501 28714
SHENZHOU-22             
1 66645U 25272A   26136.10213920  .00011556  00000+0  13943-3 0  9991
2 66645  41.4668 157.1227 0007244 240.9734 119.0380 15.60599388288632
SOYUZ-MS 28             
1 66664U 25275A   26136.13376888  .00005028  00000+0  98569-4 0  9996
2 66664  51.6318  98.7731 0007490  64.0316 296.1443 15.49230000567178
DUPLEX                  
1 66906U 98067XS  26136.04950240  .00029234  00000+0  35771-3 0  9994
2 66906  51.6275  91.4555 0005646  66.6078 293.5509 15.60125957 25638
ISS OBJECT XW           
1 66910U 98067XW  26136.00438969  .02737907  11843-4  13467-2 0  9998
2 66910  51.6076  74.3828 0005014 212.1294 147.9419 16.20241410 25858
ISS OBJECT XY           
1 66912U 98067XY  26136.06006030  .00170225  00000+0  88720-3 0  9991
2 66912  51.6230  82.4560 0006182  88.8736 271.2974 15.79852672 25747
KNACKSAT-2              
1 67683U 98067XZ  26136.16068756  .00037994  00000+0  51786-3 0  9998
2 67683  51.6288  95.2036 0012416  80.9283 279.3113 15.57054590 15284
CORAL                   
1 67684U 98067YA  26136.13914304  .00114821  00000+0  10596-2 0  9993
2 67684  51.6254  92.0448 0014735  79.5458 280.7198 15.66594665 15320
GXIBA-1                 
1 67685U 98067YB  26136.25416719  .00049260  00000+0  64155-3 0  9999
2 67685  51.6290  94.3242 0014123  79.5295 280.7288 15.58125208 15300
UITMSAT-2               
1 67686U 98067YC  26136.12781230  .00057254  00000+0  68872-3 0  9991
2 67686  51.6272  94.2344 0010933  62.2437 297.9664 15.60205563 15297
HMU-SAT2                
1 67687U 98067YD  26136.14123357  .00041041  00000+0  54640-3 0  9999
2 67687  51.6300  95.0811 0010507  61.7148 298.4904 15.57672973 15201
LEOPARD                 
1 67688U 98067YE  26136.28431052  .00058656  00000+0  73112-3 0  9994
2 67688  51.6281  93.7834 0010620  62.5169 297.6902 15.59264831 15232
CREW DRAGON 12          
1 67796U 26031A   26136.13376888  .00005028  00000+0  98569-4 0  9994
2 67796  51.6318  98.7731 0007490  64.0316 296.1443 15.49230000567096
PROGRESS-MS 33          
1 68319U 26058A   26136.13376888  .00005028  00000+0  98569-4 0  9995
2 68319  51.6318  98.7731 0007490  64.0316 296.1443 15.49230000  8560
CYGNUS NG-24            
1 68689U 26079A   26136.13376888  .00005028  00000+0  98569-4 0  9998
2 68689  51.6318  98.7731 0007490  64.0316 296.1443 15.49230000  5578
PROGRESS-MS 34          
1 68837U 26093A   26136.13376888  .00005028  00000+0  98569-4 0  9999
2 68837  51.6318  98.7731 0007490  64.0316 296.1443 15.49230000  3076
TIANZHOU-10             
1 69049U 26102A   26136.10213919  .00012432  00000+0  14968-3 0  9995
2 69049  41.4668 157.1227 0007241 240.9826 119.0288 15.60600650   827
CZ-7 R/B                
1 69050U 26102B   26136.08096863  .01226959  75859-5  53898-3 0  9998
2 69050  41.4959 155.1310 0085951 205.2241 154.4406 16.12710473   819
